{
    "links": {
        "self": "http://www.neowsapp.com/rest/v1/neo/3733295?api_key=iIulBulltgU6a56xZRHN4H3l9WmuAYTsLGpBGhQ2"
    },
    "id": "3733295",
    "neo_reference_id": "3733295",
    "name": "(2015 VS2)",
    "designation": "2015 VS2",
    "nasa_jpl_url": "http://ssd.jpl.nasa.gov/sbdb.cgi?sstr=3733295",
    "absolute_magnitude_h": 21.8,
    "estimated_diameter": {
        "kilometers": {
            "estimated_diameter_min": 0.1160259082,
            "estimated_diameter_max": 0.2594418179
        },
        "meters": {
            "estimated_diameter_min": 116.0259082094,
            "estimated_diameter_max": 259.4418179074
        },
        "miles": {
            "estimated_diameter_min": 0.0720951346,
            "estimated_diameter_max": 0.1612096218
        },
        "feet": {
            "estimated_diameter_min": 380.6624406898,
            "estimated_diameter_max": 851.1870938635
        }
    },
    "is_potentially_hazardous_asteroid": false,
    "close_approach_data": [
        {
            "close_approach_date": "2015-10-24",
            "close_approach_date_full": "2015-Oct-24 09:58",
            "epoch_date_close_approach": 1445680680000,
            "relative_velocity": {
                "kilometers_per_second": "9.781652228",
                "kilometers_per_hour": "35213.9480206605",
                "miles_per_hour": "21880.5778687265"
            },
            "miss_distance": {
                "astronomical": "0.175682768",
                "lunar": "68.340596752",
                "kilometers": "26281767.88850416",
                "miles": "16330733.299751008"
            },
            "orbiting_body": "Earth"
        },
        {
            "close_approach_date": "2018-08-27",
            "close_approach_date_full": "2018-Aug-27 00:06",
            "epoch_date_close_approach": 1535328360000,
            "relative_velocity": {
                "kilometers_per_second": "11.1830876699",
                "kilometers_per_hour": "40259.1156118114",
                "miles_per_hour": "25015.4488089058"
            },
            "miss_distance": {
                "astronomical": "0.2660524014",
                "lunar": "103.4943841446",
                "kilometers": "39800872.557825018",
                "miles": "24731115.4103725284"
            },
            "orbiting_body": "Earth"
        }
    ],
    "orbital_data": {
        "orbit_id": "21",
        "orbit_determination_date": "2017-04-06 08:30:56",
        "first_observation_date": "2015-11-02",
        "last_observation_date": "2015-11-29",
        "data_arc_in_days": 27,
        "observations_used": 101,
        "orbit_uncertainty": "7",
        "minimum_orbit_intersection": ".105803",
        "jupiter_tisserand_invariant": "3.638",
        "epoch_osculation": "2459000.5",
        "eccentricity": ".4761180232368321",
        "semi_major_axis": "2.04781599952476",
        "inclination": "6.326428540144627",
        "ascending_node_longitude": "232.7497035376372",
        "orbital_period": "1070.372208928863",
        "perihelion_distance": "1.072813893878274",
        "perihelion_argument": "132.5754467119218",
        "aphelion_distance": "3.022818105171246",
        "perihelion_time": "2459446.245666045593",
        "mean_anomaly": "210.0816459565999",
        "mean_motion": ".3363316022192478",
        "equinox": "J2000",
        "orbit_class": {
            "orbit_class_type": "AMO",
            "orbit_class_description": "Near-Earth asteroid orbits similar to that of 1221 Amor",
            "orbit_class_range": "1.017 AU < q (perihelion) < 1.3 AU"
        }
    },
    "is_sentry_object": false
}